{"type": "FeatureCollection", "features": [{"type": "Feature", "geometry": {"type": "Point", "coordinates": [-72.87993, -13.637163]}, "properties": {"id": "CEM001", "nombre": "CEM ABANCAY", "key": "apurimac", "provincia": "ABANCAY", "distrito": "ABANCAY", "direccion": "JR. LIMA S/N (SÓTANO DEL PARQUE CENTENARIO)", "casos_total": 30, "casos_sexual": 4, "casos_fisica": 14, "casos_psico": 12}}, {"type": "Feature", "geometry": {"type": "Point", "coordinates": [-74.569098, -12.84307]}, "properties": {"id": "CEM002", "nombre": "CEM ACOBAMBA", "key": "huancavelica", "provincia": "ACOBAMBA", "distrito": "ACOBAMBA", "direccion": "AV. MANUEL CANDAMO N° 441- 443 - ACOBAMBA - HUANCAVELICA", "casos_total": 28, "casos_sexual": 2, "casos_fisica": 17, "casos_psico": 9}}, {"type": "Feature", "geometry": {"type": "Point", "coordinates": [-76.204994, -10.128228]}, "properties": {"id": "CEM003", "nombre": "CEM AMBO", "key": "huanuco", "provincia": "AMBO", "distrito": "AMBO", "direccion": "JR. MARISCAL CASTILLA CDRA 02 -AL LADO DEL BANCO DE LA NACIÓN", "casos_total": 57, "casos_sexual": 6, "casos_fisica": 25, "casos_psico": 26}}, {"type": "Feature", "geometry": {"type": "Point", "coordinates": [-73.379692, -13.656756]}, "properties": {"id": "CEM004", "nombre": "CEM ANDAHUAYLAS", "key": "apurimac", "provincia": "ANDAHUAYLAS", "distrito": "ANDAHUAYLAS", "direccion": "AV. PERÚ S/N PUERTA 4 (ESTADIO MUNICIPAL LOS CHANKAS)", "casos_total": 72, "casos_sexual": 8, "casos_fisica": 28, "casos_psico": 36}}, {"type": "Feature", "geometry": {"type": "Point", "coordinates": [-72.876151, -14.367497]}, "properties": {"id": "CEM005", "nombre": "CEM ANTABAMBA", "key": "apurimac", "provincia": "ANTABAMBA", "distrito": "ANTABAMBA", "direccion": "CALLE CALVARIO S/N CON ESQUINA CALLE HUANCA S/N, BARRIO ALTO", "casos_total": 24, "casos_sexual": 5, "casos_fisica": 12, "casos_psico": 7}}, {"type": "Feature", "geometry": {"type": "Point", "coordinates": [-74.21322, -13.14203]}, "properties": {"id": "CEM007", "nombre": "CEM HUAMANGA", "key": "ayacucho", "provincia": "HUAMANGA", "distrito": "AYACUCHO", "direccion": "TERMINAL TERRESTRE TOTORILLA 1ER. PISO (SALIDA A HUANTA)", "casos_total": 69, "casos_sexual": 12, "casos_fisica": 31, "casos_psico": 25}}, {"type": "Feature", "geometry": {"type": "Point", "coordinates": [-78.529975, -5.638138]}, "properties": {"id": "CEM008", "nombre": "CEM BAGUA", "key": "amazonas", "provincia": "BAGUA", "distrito": "BAGUA", "direccion": "JR. SARGENTO LORES S/N A 2 CUADRAS DE LA GERENCIA SUB REGIONAL DE BAGUA", "casos_total": 18, "casos_sexual": 3, "casos_fisica": 8, "casos_psico": 7}}, {"type": "Feature", "geometry": {"type": "Point", "coordinates": [-78.519794, -7.15564]}, "properties": {"id": "CEM009", "nombre": "CEM CAJAMARCA", "key": "cajamarca", "provincia": "CAJAMARCA", "distrito": "CAJAMARCA", "direccion": "JR. TARAPACA N° 714 2DO. PISO OF. 203-204 FRENTE AL BBVA", "casos_total": 50, "casos_sexual": 10, "casos_fisica": 20, "casos_psico": 20}}, {"type": "Feature", "geometry": {"type": "Point", "coordinates": [-77.142729, -12.056675]}, "properties": {"id": "CEM010", "nombre": "CEM CALLAO", "key": "callao", "provincia": "CALLAO", "distrito": "CALLAO", "direccion": "AV. 02 DE MAYO - CDRA. 05 S/N - OFICINA 126 (INT. DE LA SEDE DEL PODER JUDICIAL)", "casos_total": 65, "casos_sexual": 17, "casos_fisica": 25, "casos_psico": 22}}, {"type": "Feature", "geometry": {"type": "Point", "coordinates": [-74.143695, -13.628996]}, "properties": {"id": "CEM012", "nombre": "CEM CANGALLO", "key": "ayacucho", "provincia": "CANGALLO", "distrito": "CANGALLO", "direccion": "PLAZA PRINCIPAL 2DO. PISO (MUNICIPALIDAD PROVINCIAL DE CANGALLO)", "casos_total": 37, "casos_sexual": 3, "casos_fisica": 12, "casos_psico": 22}}, {"type": "Feature", "geometry": {"type": "Point", "coordinates": [-76.381554, -13.075936]}, "properties": {"id": "CEM013", "nombre": "CEM CAÑETE", "key": "lima", "provincia": "CAÑETE", "distrito": "SAN VICENTE DE CAÑETE", "direccion": "AVENIDA MARISCAL BENAVIDES N°361", "casos_total": 41, "casos_sexual": 1, "casos_fisica": 9, "casos_psico": 31}}, {"type": "Feature", "geometry": {"type": "Point", "coordinates": [-77.0046, -11.86094]}, "properties": {"id": "CEM014", "nombre": "CEM CARABAYLLO", "key": "lima", "provincia": "LIMA", "distrito": "CARABAYLLO", "direccion": "AV. SAN LUCAS S/N MZ. J, LOTE 01 AAHH VILLA SAN ANTONIO CARABAYLLO - LIMA . (PRIMERA ENTRADA DE SAN ANTONIO A 4 CUADRAS).", "casos_total": 21, "casos_sexual": 9, "casos_fisica": 6, "casos_psico": 6}}, {"type": "Feature", "geometry": {"type": "Point", "coordinates": [-77.87315, -6.229828]}, "properties": {"id": "CEM016", "nombre": "CEM CHACHAPOYAS", "key": "amazonas", "provincia": "CHACHAPOYAS", "distrito": "CHACHAPOYAS", "direccion": "CALLE MANUEL MOLLINEDO - CUADRA 4  AA.HH. SEÑOR DE LOS MILAGROS- LOCAL COMUNAL 2DO PISO - (REFERENCIA POR LA LETRA Y AV. AEROPUERTO)", "casos_total": 27, "casos_sexual": 10, "casos_fisica": 5, "casos_psico": 12}}, {"type": "Feature", "geometry": {"type": "Point", "coordinates": [-75.3319283, -11.0558334]}, "properties": {"id": "CEM017", "nombre": "CEM CHANCHAMAYO", "key": "junin", "provincia": "CHANCHAMAYO", "distrito": "CHANCHAMAYO", "direccion": "AV CIRCUNVALACION 696 LA MERCED,CHANCHAMAYO REF. AL FRENTE DE LA DEFENSA PÚBLICA", "casos_total": 129, "casos_sexual": 22, "casos_fisica": 34, "casos_psico": 73}}, {"type": "Feature", "geometry": {"type": "Point", "coordinates": [-75.210243, -12.083323]}, "properties": {"id": "CEM019", "nombre": "CEM CHILCA", "key": "junin", "provincia": "HUANCAYO", "distrito": "CHILCA", "direccion": "JIRON NICOLAS DE PIEROLA 204 (ESQUINA CON CALLE CESAR VALLEJO - 2 PISO)", "casos_total": 80, "casos_sexual": 16, "casos_fisica": 15, "casos_psico": 48}}, {"type": "Feature", "geometry": {"type": "Point", "coordinates": [-78.588893, -9.072565]}, "properties": {"id": "CEM020", "nombre": "CEM CHIMBOTE", "key": "ancash", "provincia": "SANTA", "distrito": "CHIMBOTE", "direccion": "AV. JOSÉ GÁLVEZ N° 660, 3ER PISO - (MERCADO DE PECES)", "casos_total": 45, "casos_sexual": 1, "casos_fisica": 7, "casos_psico": 37}}, {"type": "Feature", "geometry": {"type": "Point", "coordinates": [-73.721995, -13.516704]}, "properties": {"id": "CEM021", "nombre": "CEM CHINCHEROS", "key": "apurimac", "provincia": "CHINCHEROS", "distrito": "CHINCHEROS", "direccion": "AV. FERNANDO BELAUNDE TERRY S/N - 5 ESQUINAS, FRENTE AL SEMÁFORO", "casos_total": 61, "casos_sexual": 4, "casos_fisica": 32, "casos_psico": 25}}, {"type": "Feature", "geometry": {"type": "Point", "coordinates": [-79.220836, -7.790863]}, "properties": {"id": "CEM023", "nombre": "CEM CHOCOPE", "key": "la_libertad", "provincia": "ASCOPE", "distrito": "CHOCOPE", "direccion": "JR.GILDEMEISTER Nº 187 ( A ESPALADAS DEL INSTITUTO TECNOLOGICO)", "casos_total": 57, "casos_sexual": 3, "casos_fisica": 23, "casos_psico": 31}}, {"type": "Feature", "geometry": {"type": "Point", "coordinates": [-78.651114, -6.562118]}, "properties": {"id": "CEM024", "nombre": "CEM CHOTA", "key": "cajamarca", "provincia": "CHOTA", "distrito": "CHOTA", "direccion": "JR. CAJAMARCA 638 (COSTADO DE LA CAJA TRUJILLO - CHOTA)", "casos_total": 33, "casos_sexual": 2, "casos_fisica": 15, "casos_psico": 16}}, {"type": "Feature", "geometry": {"type": "Point", "coordinates": [-72.08511, -14.447453]}, "properties": {"id": "CEM026", "nombre": "CEM CHUMBIVILCAS", "key": "cusco", "provincia": "CHUMBIVILCAS", "distrito": "SANTO TOMAS", "direccion": "CALLE STA. BARBARA S/N - SANTO TOMAS /CHUMBIVILCAS", "casos_total": 40, "casos_sexual": 5, "casos_fisica": 17, "casos_psico": 18}}, {"type": "Feature", "geometry": {"type": "Point", "coordinates": [-72.707656, -14.105015]}, "properties": {"id": "CEM027", "nombre": "CEM CHUQUIBAMBILLA", "key": "apurimac", "provincia": "GRAU", "distrito": "CHUQUIBAMBILLA", "direccion": "AV. GRAU S/N - CHUQUIBAMBILLA (AL COSTADO DEL BANCO DE LA NACIÓN)", "casos_total": 16, "casos_sexual": 1, "casos_fisica": 15, "casos_psico": 0}}, {"type": "Feature", "geometry": {"type": "Point", "coordinates": [-74.387841, -12.738881]}, "properties": {"id": "CEM028", "nombre": "CEM CHURCAMPA", "key": "huancavelica", "provincia": "CHURCAMPA", "distrito": "CHURCAMPA", "direccion": "ESQUINA REAL Y SAN ANTONIO ( COSTADO DE ELECTRO CENTRO- FRENTE A PLAZA PRINCIPAL)", "casos_total": 35, "casos_sexual": 4, "casos_fisica": 10, "casos_psico": 21}}, {"type": "Feature", "geometry": {"type": "Point", "coordinates": [-77.0400391, -11.923266]}, "properties": {"id": "CEM029", "nombre": "CEM COMAS", "key": "lima", "provincia": "LIMA", "distrito": "COMAS", "direccion": "PSJ. NEPTUNO S/N - AÑO NUEVO - COMAS (INTERIOR DEL INABIF)", "casos_total": 46, "casos_sexual": 14, "casos_fisica": 16, "casos_psico": 16}}, {"type": "Feature", "geometry": {"type": "Point", "coordinates": [-75.314875, -11.914406]}, "properties": {"id": "CEM030", "nombre": "CEM CONCEPCION", "key": "junin", "provincia": "CONCEPCIÓN", "distrito": "CONCEPCIÓN", "direccion": "JIRON RICARDO PALMA S/N PLATAFORMA DEL MERCADO MODELO (COSTADO DE LA RENIEC)", "casos_total": 61, "casos_sexual": 6, "casos_fisica": 22, "casos_psico": 30}}, {"type": "Feature", "geometry": {"type": "Point", "coordinates": [-71.961389, -13.523972]}, "properties": {"id": "CEM031", "nombre": "CEM CUSCO", "key": "cusco", "provincia": "CUSCO", "distrito": "WANCHAQ", "direccion": "AV. MICAELA BASTIDAS N°450 WANCHAQ (INTERIOR DE LOCAL DE FONCODES - FRENTE DE PUERTA PRINCIPAL DE ESSALUD)", "casos_total": 36, "casos_sexual": 14, "casos_fisica": 8, "casos_psico": 14}}, {"type": "Feature", "geometry": {"type": "Point", "coordinates": [-76.997835, -12.051282]}, "properties": {"id": "CEM032", "nombre": "CEM EL AGUSTINO", "key": "lima", "provincia": "LIMA", "distrito": "EL AGUSTINO", "direccion": "JR. MANUEL TEJADA DIAZ S/N - URB. COORPORACION. EL AGUSTINO REFERENCIA. 1ER PISO CENTRO DESARROLLO EMPRESARIAL DE EL AGUSTINO", "casos_total": 22, "casos_sexual": 10, "casos_fisica": 2, "casos_psico": 10}}, {"type": "Feature", "geometry": {"type": "Point", "coordinates": [-71.411054, -14.792215]}, "properties": {"id": "CEM033", "nombre": "CEM ESPINAR", "key": "cusco", "provincia": "ESPINAR", "distrito": "ESPINAR", "direccion": "AV. SAN MARTIN 316- CERCADO (FRENTE AL HOTEL PLAZA Y COSTADO DEL TEATRO MUNICIPAL)", "casos_total": 70, "casos_sexual": 7, "casos_fisica": 17, "casos_psico": 46}}, {"type": "Feature", "geometry": {"type": "Point", "coordinates": [-79.78940591, -6.63980342]}, "properties": {"id": "CEM034", "nombre": "CEM FERREÑAFE", "key": "lambayeque", "provincia": "FERREÑAFE", "distrito": "FERREÑAFE", "direccion": "CALLE NICANOR CARMONA N° 223 (EX LOCAL DE LA GERENCIA DE DESARROLLO SOCIAL)", "casos_total": 42, "casos_sexual": 2, "casos_fisica": 12, "casos_psico": 28}}, {"type": "Feature", "geometry": {"type": "Point", "coordinates": [-77.61270915, -11.10867458]}, "properties": {"id": "CEM035", "nombre": "CEM HUACHO", "key": "lima", "provincia": "HUAURA", "distrito": "HUACHO", "direccion": "JR. COLON 533  HUACHO -  AL FRENTE DE COLEGIO DE MADRES DOMINICAS", "casos_total": 26, "casos_sexual": 9, "casos_fisica": 1, "casos_psico": 16}}, {"type": "Feature", "geometry": {"type": "Point", "coordinates": [-77.870177, -7.781861]}, "properties": {"id": "CEM036", "nombre": "CEM HUAMACHUCO", "key": "la_libertad", "provincia": "SÁNCHEZ CARRIÓN", "distrito": "CHUGAY", "direccion": "INTERSECCIÓN DE AV. HUAMACHUCO Y PASAJE BELAUNDE - DISTRITO DE CHUGAY (COSTADO DE ESTADIO CHUGAY)", "casos_total": 1, "casos_sexual": 1, "casos_fisica": 0, "casos_psico": 0}}, {"type": "Feature", "geometry": {"type": "Point", "coordinates": [-74.334418, -13.919469]}, "properties": {"id": "CEM037", "nombre": "CEM HUANCASANCOS", "key": "ayacucho", "provincia": "HUANCA SANCOS", "distrito": "SANCOS", "direccion": "AV.LOS AYLLUS S/N - LOCAL MUNICIPAL - 1ER PISO", "casos_total": 29, "casos_sexual": 2, "casos_fisica": 12, "casos_psico": 15}}, {"type": "Feature", "geometry": {"type": "Point", "coordinates": [-74.97455756, -12.7820898]}, "properties": {"id": "CEM038", "nombre": "CEM HUANCAVELICA", "key": "huancavelica", "provincia": "HUANCAVELICA", "distrito": "HUANCAVELICA", "direccion": "JR. POTOCCHI S/N ESPALDA DE LA PISCINA SAN CRISTOBAL -", "casos_total": 29, "casos_sexual": 0, "casos_fisica": 7, "casos_psico": 22}}, {"type": "Feature", "geometry": {"type": "Point", "coordinates": [-75.220484, -12.072022]}, "properties": {"id": "CEM039", "nombre": "CEM HUANCAYO", "key": "junin", "provincia": "HUANCAYO", "distrito": "HUANCAYO", "direccion": "JR. CUZCO N° 1590 (COSTADO DE LA SOCIEDAD DE BENEFICIENCIA DE HUANCAYO Y HOSPITAL CARRION)", "casos_total": 105, "casos_sexual": 24, "casos_fisica": 51, "casos_psico": 30}}, {"type": "Feature", "geometry": {"type": "Point", "coordinates": [-74.247392, -12.938704]}, "properties": {"id": "CEM040", "nombre": "CEM HUANTA", "key": "ayacucho", "provincia": "HUANTA", "distrito": "LURICOCHA", "direccion": "JR. DELFINO LUDEÑA S/N 1ERA CUADRA", "casos_total": 32, "casos_sexual": 7, "casos_fisica": 9, "casos_psico": 16}}, {"type": "Feature", "geometry": {"type": "Point", "coordinates": [-76.245869, -9.94253]}, "properties": {"id": "CEM041", "nombre": "CEM HUANUCO", "key": "huanuco", "provincia": "HUÁNUCO", "distrito": "AMARILIS", "direccion": "JR. MALECÓN LOS INCAS Nro. 433 (ESQUINA CON OLLANTAY)-LOCAL MULTISERVICIO DE ATENCIÓN MADRE NIÑO", "casos_total": 112, "casos_sexual": 44, "casos_fisica": 30, "casos_psico": 38}}, {"type": "Feature", "geometry": {"type": "Point", "coordinates": [-77.524713, -9.527654]}, "properties": {"id": "CEM042", "nombre": "CEM HUARAZ", "key": "ancash", "provincia": "HUARAZ", "distrito": "HUARAZ", "direccion": "AV. RAIMONI S/N CUADRA 10 - INTERIOR DE LA DIRECCION REGIONAL DEL MINISTERIO DEL TRABAJO Y DEL EMPELO.", "casos_total": 47, "casos_sexual": 5, "casos_fisica": 17, "casos_psico": 25}}, {"type": "Feature", "geometry": {"type": "Point", "coordinates": [-78.152906, -10.069588]}, "properties": {"id": "CEM043", "nombre": "CEM HUARMEY", "key": "ancash", "provincia": "HUARMEY", "distrito": "HUARMEY", "direccion": "JR.QUILIPE N° 145 - HUARMEY (LOCAL DE ONG- REAQUI RURACHUN- RADIO MANANTIAL)", "casos_total": 50, "casos_sexual": 6, "casos_fisica": 22, "casos_psico": 22}}, {"type": "Feature", "geometry": {"type": "Point", "coordinates": [-76.38612131, -11.84496926]}, "properties": {"id": "CEM044", "nombre": "CEM HUAROCHIRI", "key": "lima", "provincia": "HUAROCHIRÍ", "distrito": "MATUCANA", "direccion": "PLAZA INDEPENDENCIA N°117 -  MATUCANA", "casos_total": 9, "casos_sexual": 4, "casos_fisica": 2, "casos_psico": 3}}, {"type": "Feature", "geometry": {"type": "Point", "coordinates": [-76.7623316, -11.9741622]}, "properties": {"id": "CEM045", "nombre": "CEM HUAYCAN", "key": "lima", "provincia": "LIMA", "distrito": "ATE", "direccion": "NICOLAS AYLLON N° 1478 - CHACLACAYO", "casos_total": 22, "casos_sexual": 2, "casos_fisica": 3, "casos_psico": 17}}, {"type": "Feature", "geometry": {"type": "Point", "coordinates": [-75.731239, -14.060473]}, "properties": {"id": "CEM048", "nombre": "CEM ICA", "key": "ica", "provincia": "ICA", "distrito": "ICA", "direccion": "CALLE APURÍMAC N° 227 (COSTADO DE LA MORGUE DE ICA)", "casos_total": 56, "casos_sexual": 4, "casos_fisica": 14, "casos_psico": 38}}, {"type": "Feature", "geometry": {"type": "Point", "coordinates": [-77.054535, -11.9970448]}, "properties": {"id": "CEM050", "nombre": "CEM INDEPENDENCIA", "key": "lima", "provincia": "LIMA", "distrito": "INDEPENDENCIA", "direccion": "AV. HUAMACHUCO S/N , INTERIOR DEL COLISEO DE LA AMISTAD PERÚ JAPÓN , II ZONA DE TAHUANTINSUYO", "casos_total": 40, "casos_sexual": 4, "casos_fisica": 16, "casos_psico": 20}}, {"type": "Feature", "geometry": {"type": "Point", "coordinates": [-78.804834, -5.718533]}, "properties": {"id": "CEM052", "nombre": "CEM JAEN", "key": "cajamarca", "provincia": "JAÉN", "distrito": "JAÉN", "direccion": "CALLE UNIVERSIDAD ENTRE LA CDRA 4 Y 5 (INGRESANDO POR EL PASAJE 2 MANO DERECHA)- URB. EL EDEN.", "casos_total": 67, "casos_sexual": 13, "casos_fisica": 29, "casos_psico": 25}}, {"type": "Feature", "geometry": {"type": "Point", "coordinates": [-75.354377, -11.8551919]}, "properties": {"id": "CEM053", "nombre": "CEM JAUJA", "key": "junin", "provincia": "JAUJA", "distrito": "APATA", "direccion": "JR. AYACUCHO N° 1036", "casos_total": 54, "casos_sexual": 1, "casos_fisica": 17, "casos_psico": 35}}, {"type": "Feature", "geometry": {"type": "Point", "coordinates": [-73.790339, -12.617882]}, "properties": {"id": "CEM055", "nombre": "CEM KIMBIRI", "key": "cusco", "provincia": "LA CONVENCIÓN", "distrito": "KIMBIRI", "direccion": "JIRON CUSCO N° 273 DEL DISTRITO DE KIMBIRI (PRIMER PISO DEL EDIFICIO DE LA COORDINACIÓN EDUCATIVA)", "casos_total": 47, "casos_sexual": 7, "casos_fisica": 26, "casos_psico": 14}}, {"type": "Feature", "geometry": {"type": "Point", "coordinates": [-79.052686, -8.05634]}, "properties": {"id": "CEM056", "nombre": "CEM LA ESPERANZA", "key": "la_libertad", "provincia": "TRUJILLO", "distrito": "LA ESPERANZA", "direccion": "3ER SECTOR DE WINCHANZAO MZ 33 LOTE 01 (COSTADO DEL CENTRO DE SALUD WINCHANZAO Y DE LA COMISARIA DE LA ESPERANZA )", "casos_total": 117, "casos_sexual": 11, "casos_fisica": 61, "casos_psico": 44}}, {"type": "Feature", "geometry": {"type": "Point", "coordinates": [-73.982031, -13.012629]}, "properties": {"id": "CEM057", "nombre": "CEM LA MAR", "key": "ayacucho", "provincia": "LA MAR", "distrito": "SAN MIGUEL", "direccion": "JR. MARIA PARADO DE BELLIDO S/N (CENTRO CIVICO OFICINA N°11, SAN MIGUEL -LA MAR (AL COSTADO DE SENASA)", "casos_total": 50, "casos_sexual": 10, "casos_fisica": 21, "casos_psico": 19}}, {"type": "Feature", "geometry": {"type": "Point", "coordinates": [-77.062125, -12.090418]}, "properties": {"id": "CEM058", "nombre": "CEM SAN LUIS", "key": "lima", "provincia": "LIMA", "distrito": "SAN LUIS", "direccion": "CALLE RODOLFO RUTTÉ 718 - MAGDALENA DEL MAR", "casos_total": 11, "casos_sexual": 1, "casos_fisica": 2, "casos_psico": 8}}, {"type": "Feature", "geometry": {"type": "Point", "coordinates": [-77.034742, -12.048389]}, "properties": {"id": "CEM060", "nombre": "CEM LIMA", "key": "lima", "provincia": "LIMA", "distrito": "LIMA", "direccion": "JR. CAMANA N° 616 CERCADO DE LIMA-LIMA, BREÑA, JESUS MARIA, LINCE", "casos_total": 98, "casos_sexual": 28, "casos_fisica": 34, "casos_psico": 36}}, {"type": "Feature", "geometry": {"type": "Point", "coordinates": [-77.08280937, -12.00290752]}, "properties": {"id": "CEM061", "nombre": "CEM LOS OLIVOS", "key": "lima", "provincia": "LIMA", "distrito": "LOS OLIVOS", "direccion": "PALACIO DE LA JUVENTUD - 6TOPISO AV. UNIVERSITARIA CUADRA 2086 (CRUCE AV. ANGELICA GAMARRA Y UNIVERSITARIA)", "casos_total": 33, "casos_sexual": 9, "casos_fisica": 9, "casos_psico": 15}}, {"type": "Feature", "geometry": {"type": "Point", "coordinates": [-74.124692, -14.694237]}, "properties": {"id": "CEM062", "nombre": "CEM LUCANAS", "key": "ayacucho", "provincia": "LUCANAS", "distrito": "PUQUIO", "direccion": "JR. BOLOGNESI N° 108 (A MEDIA PLAZA DE ARMAS DE PUQUIO) - MUNICIPALIDAD PROVINCIAL DE LUCANAS -PUQUIO", "casos_total": 25, "casos_sexual": 4, "casos_fisica": 8, "casos_psico": 13}}, {"type": "Feature", "geometry": {"type": "Point", "coordinates": [-76.88192414, -12.08981516]}, "properties": {"id": "CEM064", "nombre": "CEM MANCHAY", "key": "lima", "provincia": "LIMA", "distrito": "PACHACÁMAC", "direccion": "AV. VÍCTOR MALASQUES S/N PORTADA DE MANCHAY (CENTRO CULTURAL DEL ESPÍRITU SANTO, EN LA RECTA PARROQUIA ESPIRITU SANTO Y FRENTE AL CENTRO DE SALUD PORTADA DE MANCHAY).", "casos_total": 45, "casos_sexual": 16, "casos_fisica": 9, "casos_psico": 20}}, {"type": "Feature", "geometry": {"type": "Point", "coordinates": [-76.970352, -6.043739]}, "properties": {"id": "CEM068", "nombre": "CEM MOYOBAMBA", "key": "san_martin", "provincia": "MOYOBAMBA", "distrito": "MOYOBAMBA", "direccion": "AV. GRAU CDRA 4 (AL COSTADO DEL MERCADO AYAYMAMA - CAMPO FERIAL AYYAMAMA)", "casos_total": 43, "casos_sexual": 9, "casos_fisica": 6, "casos_psico": 28}}, {"type": "Feature", "geometry": {"type": "Point", "coordinates": [-74.936613, -14.827153]}, "properties": {"id": "CEM069", "nombre": "CEM NAZCA", "key": "ica", "provincia": "NASCA", "distrito": "NASCA", "direccion": "JIRON TACNA 338 - 2DO PISO (BIBLIOTECA MUNICPAL DE NASCA )", "casos_total": 49, "casos_sexual": 7, "casos_fisica": 15, "casos_psico": 25}}, {"type": "Feature", "geometry": {"type": "Point", "coordinates": [-78.518841, -9.136438]}, "properties": {"id": "CEM071", "nombre": "CEM NUEVO CHIMBOTE", "key": "ancash", "provincia": "SANTA", "distrito": "NUEVO CHIMBOTE", "direccion": "AV. CENTRAL BRUCES S/N (INTERIOR DEL POLIDEPORTIVO BRUCES-PILAR NORES DE GARCIA)", "casos_total": 41, "casos_sexual": 1, "casos_fisica": 9, "casos_psico": 31}}, {"type": "Feature", "geometry": {"type": "Point", "coordinates": [-78.56477163, -7.90408686]}, "properties": {"id": "CEM072", "nombre": "CEM OTUZCO", "key": "la_libertad", "provincia": "OTUZCO", "distrito": "OTUZCO", "direccion": "CALLE TACNA N° 547 - PROVINCIA DE OTUZCO, DEPARTAMENTO LA LIBERTAD", "casos_total": 40, "casos_sexual": 7, "casos_fisica": 13, "casos_psico": 20}}, {"type": "Feature", "geometry": {"type": "Point", "coordinates": [-75.406966, -10.574144]}, "properties": {"id": "CEM073", "nombre": "CEM OXAPAMPA", "key": "pasco", "provincia": "OXAPAMPA", "distrito": "OXAPAMPA", "direccion": "ESQ. JR. MAYER Y JR. RUFFINER S/N (1ER PISO DEL MERCADO SANTA ROSA -TIENDA 9)", "casos_total": 32, "casos_sexual": 7, "casos_fisica": 9, "casos_psico": 16}}, {"type": "Feature", "geometry": {"type": "Point", "coordinates": [-77.152715, -11.832218]}, "properties": {"id": "CEM074", "nombre": "CEM PACHACUTEC", "key": "callao", "provincia": "CALLAO", "distrito": "VENTANILLA", "direccion": "MZ Z , PRIMA N°1, LOTE 3 SECTOR D , PROYECTO PILOTO NUEVA PACHACUTEC.", "casos_total": 30, "casos_sexual": 4, "casos_fisica": 11, "casos_psico": 15}}, {"type": "Feature", "geometry": {"type": "Point", "coordinates": [-75.51324, -9.042705]}, "properties": {"id": "CEM075", "nombre": "CEM PADRE ABAD", "key": "ucayali", "provincia": "PADRE ABAD", "distrito": "PADRE ABAD", "direccion": "MZ. L-5 LT.01 JUNTA VECINAL LAS PALMERAS, AGUAYTIA", "casos_total": 24, "casos_sexual": 12, "casos_fisica": 9, "casos_psico": 3}}, {"type": "Feature", "geometry": {"type": "Point", "coordinates": [-76.966147, -12.1414514]}, "properties": {"id": "CEM076", "nombre": "CEM SAN JUAN DE MIRAFLORES", "key": "lima", "provincia": "LIMA", "distrito": "SAN JUAN DE MIRAFLORES", "direccion": "AV CENTRAL S/N SECTOR ALFONSO UGARTE PAMPLONA ALTA. (INTERIOR DE SEDIF -INABIF- PARADERO CORREO)", "casos_total": 26, "casos_sexual": 5, "casos_fisica": 8, "casos_psico": 13}}, {"type": "Feature", "geometry": {"type": "Point", "coordinates": [-76.259493, -10.690273]}, "properties": {"id": "CEM078", "nombre": "CEM PASCO", "key": "pasco", "provincia": "PASCO", "distrito": "CHAUPIMARCA", "direccion": "JIRON FRANCISCO BOLOGNESI S/N (COSTADO DE LA CAPILLA DE ULIACHIL)", "casos_total": 23, "casos_sexual": 5, "casos_fisica": 9, "casos_psico": 9}}, {"type": "Feature", "geometry": {"type": "Point", "coordinates": [-73.8307503, -12.5199352]}, "properties": {"id": "CEM080", "nombre": "CEM PICHARI", "key": "cusco", "provincia": "LA CONVENCIÓN", "distrito": "PICHARI", "direccion": "Av. INCA GARCILASO DE LA VEGA 683(FRENTE  A LA I. E. LA VICTORIA) ZONA URBANA DEL DISTRITO DE PICHARI", "casos_total": 59, "casos_sexual": 12, "casos_fisica": 26, "casos_psico": 21}}, {"type": "Feature", "geometry": {"type": "Point", "coordinates": [-76.205181, -13.706967]}, "properties": {"id": "CEM081", "nombre": "CEM PISCO", "key": "ica", "provincia": "PISCO", "distrito": "PISCO", "direccion": "CALLE 10 MANUEL E. BARRIONUEVO MZ. J, LT. 31, FONAVI, PISCO", "casos_total": 42, "casos_sexual": 6, "casos_fisica": 23, "casos_psico": 12}}, {"type": "Feature", "geometry": {"type": "Point", "coordinates": [-74.5342819, -8.3825393]}, "properties": {"id": "CEM083", "nombre": "CEM PUCALLPA", "key": "ucayali", "provincia": "CORONEL PORTILLO", "distrito": "CALLERIA", "direccion": "JR. TACNA Nº 292 (REF. EX LOCAL DEL SERENAZGO- AL COSTADO DE LA DEMUNA DE CALLERIA)", "casos_total": 86, "casos_sexual": 41, "casos_fisica": 21, "casos_psico": 24}}, {"type": "Feature", "geometry": {"type": "Point", "coordinates": [-72.694627, -12.873866]}, "properties": {"id": "CEM085", "nombre": "CEM QUILLABAMBA", "key": "cusco", "provincia": "LA CONVENCIÓN", "distrito": "SANTA ANA", "direccion": "JR. VILCABAMBA S/N -- LOCAL DE SERENAZGO", "casos_total": 60, "casos_sexual": 35, "casos_fisica": 15, "casos_psico": 9}}, {"type": "Feature", "geometry": {"type": "Point", "coordinates": [-77.16658, -6.056009]}, "properties": {"id": "CEM086", "nombre": "CEM RIOJA", "key": "san_martin", "provincia": "RIOJA", "distrito": "RIOJA", "direccion": "JR.TEOBALDO LOPEZ CUADRA 3 ( AL COSTADO DEL MODULO DE JUSTICIA - FRENTE AL MERCADO ZONAL)", "casos_total": 51, "casos_sexual": 16, "casos_fisica": 20, "casos_psico": 15}}, {"type": "Feature", "geometry": {"type": "Point", "coordinates": [-76.958477, -12.07112]}, "properties": {"id": "CEM087", "nombre": "CEM LA MOLINA", "key": "lima", "provincia": "LIMA", "distrito": "LA MOLINA", "direccion": "CALLE LOS ALMENDROS CUADRA 5 S/N URB AMPLIACION RESIDENCIAL MONTERRICO - LA MOLINA. REF: ESPALDA DE METRO DE LA AV LA MOLINA CON JAVIER PRADO", "casos_total": 32, "casos_sexual": 10, "casos_fisica": 12, "casos_psico": 10}}, {"type": "Feature", "geometry": {"type": "Point", "coordinates": [-77.004925, -11.972557]}, "properties": {"id": "CEM088", "nombre": "CEM SAN JUAN DE LURIGANCHO", "key": "lima", "provincia": "LIMA", "distrito": "SAN JUAN DE LURIGANCHO", "direccion": "JR. SAN MARTÍN N° 675 URB.SAN RAFAEL AGENCIA MUNICIPAL N°1- 2DO PISO . ( PARADERO 8 DE AV. CANTO GRANDE - AGENCIA MUNICIPAL).", "casos_total": 43, "casos_sexual": 26, "casos_fisica": 6, "casos_psico": 11}}, {"type": "Feature", "geometry": {"type": "Point", "coordinates": [-77.0549086, -12.0350979]}, "properties": {"id": "CEM089", "nombre": "CEM SAN MARTIN DE PORRES", "key": "lima", "provincia": "LIMA", "distrito": "SAN MARTÍN DE PORRES", "direccion": "AV CANTA CALLAO MZA A LT 11 URB LAS BEGONIAS  SMPAGENCIA MUNICIPAL NUEVO SAN MARTIN 2DO PISO", "casos_total": 26, "casos_sexual": 0, "casos_fisica": 8, "casos_psico": 18}}, {"type": "Feature", "geometry": {"type": "Point", "coordinates": [-78.1713728, -8.1461734]}, "properties": {"id": "CEM090", "nombre": "CEM SANTIAGO DE CHUCO", "key": "la_libertad", "provincia": "SANTIAGO DE CHUCO", "distrito": "SANTIAGO DE CHUCO", "direccion": "Calle Luis Felipe de la Puente Uceda N° 1630 REF. Ex Biblioteca Municipal", "casos_total": 15, "casos_sexual": 4, "casos_fisica": 6, "casos_psico": 5}}, {"type": "Feature", "geometry": {"type": "Point", "coordinates": [-74.659336, -11.209158]}, "properties": {"id": "CEM091", "nombre": "CEM SATIPO", "key": "junin", "provincia": "SATIPO", "distrito": "SATIPO", "direccion": "JR. DEFENSORES DE LA PAZ S/N CON JR. LAS BEGONIAS", "casos_total": 29, "casos_sexual": 3, "casos_fisica": 9, "casos_psico": 17}}, {"type": "Feature", "geometry": {"type": "Point", "coordinates": [-71.227094, -14.26362]}, "properties": {"id": "CEM093", "nombre": "CEM SICUANI", "key": "cusco", "provincia": "CANCHIS", "distrito": "SICUANI", "direccion": "AV. CONFEDERACIÓN N° 222 -224 (1ER PISO DEL INABIF A MEDIA CUADRA DEL GRIFO COPACABANA)", "casos_total": 24, "casos_sexual": 1, "casos_fisica": 9, "casos_psico": 11}}, {"type": "Feature", "geometry": {"type": "Point", "coordinates": [-73.83847, -14.011538]}, "properties": {"id": "CEM094", "nombre": "CEM SUCRE", "key": "ayacucho", "provincia": "SUCRE", "distrito": "QUEROBAMBA", "direccion": "INTERIOR DE LA MUNICIPALIDAD DISTRITAL DE QUEROBAMBA, 2DO PISO (PLAZA DE ARMAS)", "casos_total": 27, "casos_sexual": 3, "casos_fisica": 5, "casos_psico": 19}}, {"type": "Feature", "geometry": {"type": "Point", "coordinates": [-76.976705, -12.140654]}, "properties": {"id": "CEM096", "nombre": "CEM SURCO", "key": "lima", "provincia": "LIMA", "distrito": "SANTIAGO DE SURCO", "direccion": "JR. LAS ORQUIDEAS MZ N1 LOTE 1- URB. SAN IGNACIO - MONTERRICO - SURCO.", "casos_total": 42, "casos_sexual": 12, "casos_fisica": 8, "casos_psico": 22}}, {"type": "Feature", "geometry": {"type": "Point", "coordinates": [-77.010907, -12.112636]}, "properties": {"id": "CEM097", "nombre": "CEM SURQUILLO", "key": "lima", "provincia": "LIMA", "distrito": "SURQUILLO", "direccion": "AV.ANGAMOS ESTE N°1820 2do PISO - REF. FRENTE AL OPEN PLAZA ANGAMOS", "casos_total": 25, "casos_sexual": 8, "casos_fisica": 0, "casos_psico": 17}}, {"type": "Feature", "geometry": {"type": "Point", "coordinates": [-76.359927, -6.495162]}, "properties": {"id": "CEM099", "nombre": "CEM TARAPOTO", "key": "san_martin", "provincia": "SAN MARTÍN", "distrito": "TARAPOTO", "direccion": "JR.SHAPAJA 5ta CUADRA S/N - BARRIO HUAYCO DE LA URB. SANTA INES (LOCAL EX CAMAL", "casos_total": 259, "casos_sexual": 52, "casos_fisica": 79, "casos_psico": 126}}, {"type": "Feature", "geometry": {"type": "Point", "coordinates": [-75.68783218, -11.4177195]}, "properties": {"id": "CEM100", "nombre": "CEM TARMA", "key": "junin", "provincia": "TARMA", "distrito": "TARMA", "direccion": "JR. AMAZONAS CDRA. 475 - 2DO PISO DEL MERCADO MODELO - TARMA (COSTADO DE WAWAWASI)", "casos_total": 35, "casos_sexual": 4, "casos_fisica": 20, "casos_psico": 11}}, {"type": "Feature", "geometry": {"type": "Point", "coordinates": [-74.680423, -12.410906]}, "properties": {"id": "CEM101", "nombre": "CEM TAYACAJA", "key": "huancavelica", "provincia": "TAYACAJA", "distrito": "COLCABAMBA", "direccion": "PLAZA PRINCIPAL COLCABAMBA. REF: MUNICIPIO ANTIGUO", "casos_total": 16, "casos_sexual": 1, "casos_fisica": 1, "casos_psico": 14}}, {"type": "Feature", "geometry": {"type": "Point", "coordinates": [-75.99924, -9.29513]}, "properties": {"id": "CEM102", "nombre": "CEM TINGO MARIA", "key": "huanuco", "provincia": "LEONCIO PRADO", "distrito": "RUPA-RUPA", "direccion": "JR. SAN ALEJANDRO 331", "casos_total": 71, "casos_sexual": 17, "casos_fisica": 12, "casos_psico": 42}}, {"type": "Feature", "geometry": {"type": "Point", "coordinates": [-76.4617, -8.44925]}, "properties": {"id": "CEM103", "nombre": "CEM UCHIZA", "key": "san_martin", "provincia": "TOCACHE", "distrito": "UCHIZA", "direccion": "AV. MARCELIANO ALVAREZ CRUCE CON JR. PUNO - AL COSTADO DE CASA MULTISECTORIAL (TELECENTRO)- UCHIZA - TOCACHE", "casos_total": 45, "casos_sexual": 11, "casos_fisica": 18, "casos_psico": 16}}, {"type": "Feature", "geometry": {"type": "Point", "coordinates": [-79.033333, -8.120948]}, "properties": {"id": "CEM104", "nombre": "CEM TRUJILLO", "key": "la_libertad", "provincia": "TRUJILLO", "distrito": "TRUJILLO", "direccion": "MZ C LOTE 5 SECTOR A- (PUEBLO JOVEN MONSERRATE) (ALT. DE LAS CDRAS 4 Y 5 DE LA AVENIDA HUSARES DE JUNIN", "casos_total": 192, "casos_sexual": 44, "casos_fisica": 75, "casos_psico": 73}}, {"type": "Feature", "geometry": {"type": "Point", "coordinates": [-78.442423, -5.754865]}, "properties": {"id": "CEM106", "nombre": "CEM UTCUBAMBA", "key": "amazonas", "provincia": "UTCUBAMBA", "distrito": "BAGUA GRANDE", "direccion": "AV. CHACHAPOYAS 1944, INTERIOR 2DO PISO - COSTADO DEL BANCO DE CRÉDITO", "casos_total": 25, "casos_sexual": 4, "casos_fisica": 6, "casos_psico": 15}}, {"type": "Feature", "geometry": {"type": "Point", "coordinates": [-77.12741723, -11.87583804]}, "properties": {"id": "CEM107", "nombre": "CEM VENTANILLA", "key": "callao", "provincia": "CALLAO", "distrito": "VENTANILLA", "direccion": "CALLE LAS PALOMAS S/N EX - ZONA COMERCIAL - LOCAL LA CASA DE MUJER. 1ER PISO", "casos_total": 37, "casos_sexual": 6, "casos_fisica": 18, "casos_psico": 13}}, {"type": "Feature", "geometry": {"type": "Point", "coordinates": [-73.953954, -13.652572]}, "properties": {"id": "CEM108", "nombre": "CEM VILCAS HUAMÁN", "key": "ayacucho", "provincia": "VILCAS HUAMÁN", "distrito": "VILCAS HUAMÁN", "direccion": "PLAZA PACHACUTEC S/N (INTERIOR DE LA MUNIICIPALIDAD PROVINCIAL DE VILCAS HUAMAN - 2DO PISO)", "casos_total": 40, "casos_sexual": 8, "casos_fisica": 8, "casos_psico": 24}}, {"type": "Feature", "geometry": {"type": "Point", "coordinates": [-76.938394, -12.212678]}, "properties": {"id": "CEM109", "nombre": "CEM VILLA EL SALVADOR", "key": "lima", "provincia": "LIMA", "distrito": "VILLA EL SALVADOR", "direccion": "SECTOR  3, GRUPO 21, MAZANA E, LOTE 13. ENTRE LA AV. LOS ALAMOS Y MARIATEGUI FRENTE A SERENAZGO", "casos_total": 172, "casos_sexual": 49, "casos_fisica": 47, "casos_psico": 76}}, {"type": "Feature", "geometry": {"type": "Point", "coordinates": [-76.94966, -12.14961]}, "properties": {"id": "CEM110", "nombre": "CEM VILLA MARIA DEL TRIUNFO", "key": "lima", "provincia": "LIMA", "distrito": "VILLA MARIA DEL TRIUNFO", "direccion": "CALLE PAUL ESCOBAR N 105 URB SAN GABRIEL VMT A 2 CDRAS DE LA COMISARIA JOSE CARLOS MARIATEGUI", "casos_total": 80, "casos_sexual": 15, "casos_fisica": 31, "casos_psico": 34}}, {"type": "Feature", "geometry": {"type": "Point", "coordinates": [-75.2682925, -10.7350577]}, "properties": {"id": "CEM111", "nombre": "CEM VILLA RICA", "key": "pasco", "provincia": "OXAPAMPA", "distrito": "VILLA RICA", "direccion": "JR.COOPERATIVA N° 220 - VILLA RICA (COSTADO DE LA MUNICIPALIDAD)", "casos_total": 49, "casos_sexual": 4, "casos_fisica": 25, "casos_psico": 20}}, {"type": "Feature", "geometry": {"type": "Point", "coordinates": [-75.9080393, -11.5221127]}, "properties": {"id": "CEM112", "nombre": "CEM YAULI", "key": "junin", "provincia": "YAULI", "distrito": "LA OROYA", "direccion": "AV. HORACIO ZEVALLOS GAMES N° 315 CENTRO CIVICO - 2DO PISO", "casos_total": 20, "casos_sexual": 2, "casos_fisica": 12, "casos_psico": 6}}, {"type": "Feature", "geometry": {"type": "Point", "coordinates": [-75.9181684, -12.4596538]}, "properties": {"id": "CEM113", "nombre": "CEM YAUYOS", "key": "lima", "provincia": "YAUYOS", "distrito": "YAUYOS", "direccion": "JR. ENRIQUE SWAYNE S/N 1ER PISO DE LA CASA DEL MAESTRO", "casos_total": 8, "casos_sexual": 1, "casos_fisica": 4, "casos_psico": 3}}, {"type": "Feature", "geometry": {"type": "Point", "coordinates": [-76.110029, -5.893339]}, "properties": {"id": "CEM114", "nombre": "CEM YURIMAGUAS", "key": "loreto", "provincia": "ALTO AMAZONAS", "distrito": "YURIMAGUAS", "direccion": "CALLE ANGAMOS N°418 (INTERIOR DE LA MUNICIPALIDAD DE ALTO AMAZONAS)", "casos_total": 13, "casos_sexual": 2, "casos_fisica": 5, "casos_psico": 6}}, {"type": "Feature", "geometry": {"type": "Point", "coordinates": [-77.118411, -12.06445622]}, "properties": {"id": "CEM116", "nombre": "CEM BELLAVISTA", "key": "callao", "provincia": "CALLAO", "distrito": "BELLAVISTA", "direccion": "AV. JUAN PABLO II. N° 140. INTERIOR DEL GOBIERNO REGIONAL DEL CALLAO. REF: FRENTE AL COLEGIO GENERAL PRADO.", "casos_total": 32, "casos_sexual": 9, "casos_fisica": 8, "casos_psico": 15}}, {"type": "Feature", "geometry": {"type": "Point", "coordinates": [-75.2873, -12.0624]}, "properties": {"id": "CEM117", "nombre": "CEM CHUPACA", "key": "junin", "provincia": "CHUPACA", "distrito": "CHUPACA", "direccion": "JR. GRAU 159-161 , 1ER PISO (COSTADO DE RENIEC)", "casos_total": 70, "casos_sexual": 11, "casos_fisica": 21, "casos_psico": 38}}, {"type": "Feature", "geometry": {"type": "Point", "coordinates": [-79.503846, -7.431077]}, "properties": {"id": "CEM118", "nombre": "CEM PACASMAYO", "key": "la_libertad", "provincia": "PACASMAYO", "distrito": "SAN PEDRO DE LLOC", "direccion": "TRASVERSAL ANCASH 600 - SAN PEDRO DE LLOC", "casos_total": 24, "casos_sexual": 2, "casos_fisica": 8, "casos_psico": 14}}, {"type": "Feature", "geometry": {"type": "Point", "coordinates": [-74.066606, -13.751907]}, "properties": {"id": "CEM120", "nombre": "CEM VÍCTOR FAJARDO", "key": "ayacucho", "provincia": "VÍCTOR FAJARDO", "distrito": "HUANCAPI", "direccion": "JR. VICTOR FAJARDO S/N CUADRA 7 (LOCAL DE LA GOBERNACION)", "casos_total": 37, "casos_sexual": 3, "casos_fisica": 14, "casos_psico": 14}}, {"type": "Feature", "geometry": {"type": "Point", "coordinates": [-77.944135, -6.163497]}, "properties": {"id": "CEM121", "nombre": "CEM LUYA", "key": "amazonas", "provincia": "LUYA", "distrito": "LAMUD", "direccion": "JR. JOSÉ OLAYA N°420- REF.  EN EL LOCAL DEL EX CENTRO DE SALUD ANTIGUO DE LUYA", "casos_total": 17, "casos_sexual": 4, "casos_fisica": 7, "casos_psico": 6}}, {"type": "Feature", "geometry": {"type": "Point", "coordinates": [-77.073819, -11.870287]}, "properties": {"id": "CEM122", "nombre": "CEM PUENTE PIEDRA", "key": "lima", "provincia": "LIMA", "distrito": "PUENTE PIEDRA", "direccion": "MZ. E LT. 9 URB. PALERMO - REFERENCIA ESPALDA DE TOTTUS - DEL COLEGIO JOSÉ DE NAZARET A LA IZQUIERDA", "casos_total": 48, "casos_sexual": 7, "casos_fisica": 17, "casos_psico": 24}}, {"type": "Feature", "geometry": {"type": "Point", "coordinates": [-77.20679399, -11.49536782]}, "properties": {"id": "CEM124", "nombre": "CEM HUARAL", "key": "lima", "provincia": "HUARAL", "distrito": "HUARAL", "direccion": "CALLE LA HUAQUILLA CON CALLE EL PALMO. EDIFICIO LA DEMUNA 4TO PISO", "casos_total": 54, "casos_sexual": 7, "casos_fisica": 29, "casos_psico": 18}}, {"type": "Feature", "geometry": {"type": "Point", "coordinates": [-76.5160236, -6.422231]}, "properties": {"id": "CEM125", "nombre": "CEM LAMAS", "key": "san_martin", "provincia": "LAMAS", "distrito": "LAMAS", "direccion": "JR. SAN MARTIN Nº 774 - LAMAS (AL COSTADO DEL BANCO DE LA NACIÓN)", "casos_total": 56, "casos_sexual": 12, "casos_fisica": 16, "casos_psico": 28}}, {"type": "Feature", "geometry": {"type": "Point", "coordinates": [-76.8155, -9.55006]}, "properties": {"id": "CEM126", "nombre": "CEM HUAMALIES", "key": "huanuco", "provincia": "HUAMALÍES", "distrito": "LLATA", "direccion": "JR. HUAMALIES N°112, LLATAS HUAMALIES", "casos_total": 64, "casos_sexual": 7, "casos_fisica": 19, "casos_psico": 38}}, {"type": "Feature", "geometry": {"type": "Point", "coordinates": [-71.6251, -13.6883]}, "properties": {"id": "CEM127", "nombre": "CEM QUISPICANCHI", "key": "cusco", "provincia": "QUISPICANCHI", "distrito": "URCOS", "direccion": "URBANIZACION TAMBILLO S/N - URCOS- CASA DE LA JUVENTUD -QUISPICANCHI - CUSCO", "casos_total": 54, "casos_sexual": 9, "casos_fisica": 28, "casos_psico": 16}}, {"type": "Feature", "geometry": {"type": "Point", "coordinates": [-77.744942, -9.140711]}, "properties": {"id": "CEM129", "nombre": "CEM YUNGAY", "key": "ancash", "provincia": "YUNGAY", "distrito": "YUNGAY", "direccion": "AV. ARIAS GRACIANI S/N (PARTE BAJA DE LA PLAZA DE ARMAS)", "casos_total": 17, "casos_sexual": 1, "casos_fisica": 3, "casos_psico": 13}}, {"type": "Feature", "geometry": {"type": "Point", "coordinates": [-77.172953, -9.349182]}, "properties": {"id": "CEM130", "nombre": "CEM HUARI", "key": "ancash", "provincia": "HUARI", "distrito": "HUARI", "direccion": "JR. SAN MARTIN CDRA.10 -2DO PISO DEL MERCADO MODELO DE HUARI", "casos_total": 25, "casos_sexual": 5, "casos_fisica": 7, "casos_psico": 13}}, {"type": "Feature", "geometry": {"type": "Point", "coordinates": [-75.993982, -9.897441]}, "properties": {"id": "CEM134", "nombre": "CEM PACHITEA", "key": "huanuco", "provincia": "PACHITEA", "distrito": "PANAO", "direccion": "JR. ALFONSO UGARTE N° 204 - PANAO - PACHITEA - (EX ES SALUD)", "casos_total": 39, "casos_sexual": 10, "casos_fisica": 18, "casos_psico": 11}}, {"type": "Feature", "geometry": {"type": "Point", "coordinates": [-74.72026674, -12.98924669]}, "properties": {"id": "CEM135", "nombre": "CEM ANGARAES", "key": "huancavelica", "provincia": "ANGARAES", "distrito": "LIRCAY", "direccion": "AV. CENTENARIO S/N - PARQUE ANDRES AVELINO CACERES - PUEBLO NUEVO - LIRCAY (LOCAL DEL CENTRO CIVICO)", "casos_total": 47, "casos_sexual": 2, "casos_fisica": 12, "casos_psico": 33}}, {"type": "Feature", "geometry": {"type": "Point", "coordinates": [-78.817796, -6.376759]}, "properties": {"id": "CEM136", "nombre": "CEM CUTERVO", "key": "cajamarca", "provincia": "CUTERVO", "distrito": "CUTERVO", "direccion": "INTERSECCIÓN DE JR LA MERCED Y JR PROGRESO (INTERIOR DEL MERCADO CENTRAL O CENTRO COMERCIAL - 1ER PISO FACHADA COLOR CELESTE)", "casos_total": 46, "casos_sexual": 7, "casos_fisica": 19, "casos_psico": 20}}, {"type": "Feature", "geometry": {"type": "Point", "coordinates": [-79.4293, -7.22742]}, "properties": {"id": "CEM137", "nombre": "CEM CHEPEN", "key": "la_libertad", "provincia": "CHEPÉN", "distrito": "CHEPÉN", "direccion": "JR. ATAHUALPA N° 707 -2DO PISO ( INTERIOR DE LA IGLESIA - PLAZA DE ARMAS DE CHEPEN)", "casos_total": 39, "casos_sexual": 4, "casos_fisica": 21, "casos_psico": 14}}, {"type": "Feature", "geometry": {"type": "Point", "coordinates": [-78.517451, -6.67818]}, "properties": {"id": "CEM138", "nombre": "CEM HUALGAYOC", "key": "cajamarca", "provincia": "HUALGAYOC", "distrito": "BAMBAMARCA", "direccion": "JR. ATAHUALPA Nº 125A, BAMBAMARCA - HUALGAYOC - CAJAMARCA (AL COSTADO DE LA COMISARIA)", "casos_total": 24, "casos_sexual": 3, "casos_fisica": 8, "casos_psico": 13}}, {"type": "Feature", "geometry": {"type": "Point", "coordinates": [-78.754075, -8.414884]}, "properties": {"id": "CEM141", "nombre": "CEM VIRÚ", "key": "la_libertad", "provincia": "VIRÚ", "distrito": "VIRÚ", "direccion": "CALLE MARISCAL CACERES 106 - DITR. VIRU (FRENTE A AMA LOCAL FINANCIERO)", "casos_total": 52, "casos_sexual": 14, "casos_fisica": 15, "casos_psico": 23}}, {"type": "Feature", "geometry": {"type": "Point", "coordinates": [-76.127555, -13.404254]}, "properties": {"id": "CEM142", "nombre": "CEM PUEBLO NUEVO", "key": "ica", "provincia": "CHINCHA", "distrito": "PUEBLO NUEVO", "direccion": "AV. OSCAR R. BENAVIDES N° 699 (INTERIOR DEL MUNICIPIO) - PRIMER PISO.", "casos_total": 32, "casos_sexual": 3, "casos_fisica": 11, "casos_psico": 18}}, {"type": "Feature", "geometry": {"type": "Point", "coordinates": [-78.30673844, -9.47496948]}, "properties": {"id": "CEM143", "nombre": "CEM CASMA", "key": "ancash", "provincia": "CASMA", "distrito": "CASMA", "direccion": "MZ C LOTE 16 - LOCAL ONG- MAPAYMUMDI O EX SENATI (CENTRO CIVICO - CASMA)", "casos_total": 36, "casos_sexual": 3, "casos_fisica": 16, "casos_psico": 17}}, {"type": "Feature", "geometry": {"type": "Point", "coordinates": [-77.04253, -12.06583]}, "properties": {"id": "CEM145", "nombre": "CEM JESUS MARIA", "key": "lima", "provincia": "LIMA", "distrito": "JESUS MARIA", "direccion": "CONCHA ACÚSTICA DE CAMPO MARTE – AV. HORACIO URTEAGA CUADRA 5, DISTRITO DE JESÚS MARÍA", "casos_total": 32, "casos_sexual": 9, "casos_fisica": 13, "casos_psico": 10}}, {"type": "Feature", "geometry": {"type": "Point", "coordinates": [-72.1472, -13.46365075]}, "properties": {"id": "CEM146", "nombre": "CEM ANTA", "key": "cusco", "provincia": "ANTA", "distrito": "ANTA", "direccion": "JR. JAQUIJAHUANA S/N (3 PISO PALACIO MUNICIPAL)", "casos_total": 44, "casos_sexual": 16, "casos_fisica": 20, "casos_psico": 8}}, {"type": "Feature", "geometry": {"type": "Point", "coordinates": [-78.048611, -7.624444]}, "properties": {"id": "CEM148", "nombre": "CEM CAJABAMBA", "key": "cajamarca", "provincia": "CAJABAMBA", "distrito": "CAJABAMBA", "direccion": "COMPLEJO DEPORTIVO MUNICIPAL DE LA PAMPA S/N", "casos_total": 22, "casos_sexual": 3, "casos_fisica": 6, "casos_psico": 13}}, {"type": "Feature", "geometry": {"type": "Point", "coordinates": [-72.174618, -13.946006]}, "properties": {"id": "CEM149", "nombre": "CEM COTABAMBAS", "key": "apurimac", "provincia": "COTABAMBAS", "distrito": "TAMBOBAMBA", "direccion": "PLAZA DE ARMAS S/N - LOCAL DE LA MUNICIPALIDAD PROVINCIAL DE COTABAMBAS- DISTRITO DE TAMBOBAMBA.", "casos_total": 20, "casos_sexual": 4, "casos_fisica": 9, "casos_psico": 7}}, {"type": "Feature", "geometry": {"type": "Point", "coordinates": [-72.11635234, -13.30550077]}, "properties": {"id": "CEM153", "nombre": "CEM URUBAMBA", "key": "cusco", "provincia": "URUBAMBA", "distrito": "URUBAMBA", "direccion": "JR. BELÉN S/N (REF. ESQUINA BELÉN CON GRAU - LOCAL MUNICIPAL)", "casos_total": 60, "casos_sexual": 4, "casos_fisica": 11, "casos_psico": 45}}, {"type": "Feature", "geometry": {"type": "Point", "coordinates": [-75.999263, -11.161653]}, "properties": {"id": "CEM154", "nombre": "CEM JUNIN", "key": "junin", "provincia": "JUNÍN", "distrito": "JUNÍN", "direccion": "JR. BOLIVAR N° 820 - JUNIN - JUNIN", "casos_total": 65, "casos_sexual": 3, "casos_fisica": 10, "casos_psico": 52}}, {"type": "Feature", "geometry": {"type": "Point", "coordinates": [-77.765395, -10.750428]}, "properties": {"id": "CEM155", "nombre": "CEM BARRANCA", "key": "lima", "provincia": "BARRANCA", "distrito": "BARRANCA", "direccion": "SANTA CATALINA DENTRO DEL COLISEO CERRADO", "casos_total": 21, "casos_sexual": 2, "casos_fisica": 12, "casos_psico": 6}}, {"type": "Feature", "geometry": {"type": "Point", "coordinates": [-76.24339491, -9.943366]}, "properties": {"id": "CEM157", "nombre": "CEM DOS DE MAYO", "key": "huanuco", "provincia": "DOS DE MAYO", "distrito": "RIPÁN", "direccion": "JR. SAN ANTONIO S/N 2DO PISO DEL MERCADILLO DEL DISTRITO DE RIPAN - PASANDO EL PUENTE DE PIEDRA", "casos_total": 35, "casos_sexual": 5, "casos_fisica": 12, "casos_psico": 18}}, {"type": "Feature", "geometry": {"type": "Point", "coordinates": [-77.81137476, -9.0519976]}, "properties": {"id": "CEM159", "nombre": "CEM HUAYLAS", "key": "ancash", "provincia": "HUAYLAS", "distrito": "CARAZ", "direccion": "JR. SAN MARTIN S/N MZ. B6 LT. 1 - BARRIO MALAMBO. (INTERIOR DEL ESTADIO MUNICIPAL DE HUAYLAS \"GERARDO LARA\" PUERTA N° 2 OCCIDENTE)", "casos_total": 43, "casos_sexual": 12, "casos_fisica": 13, "casos_psico": 18}}, {"type": "Feature", "geometry": {"type": "Point", "coordinates": [-75.35299061, -13.60472259]}, "properties": {"id": "CEM160", "nombre": "CEM HUAYTARÁ", "key": "huancavelica", "provincia": "HUAYTARÁ", "distrito": "HUAYTARÁ", "direccion": "CALLE MUNICIPAL N° 100 SEGUNDO PISO (MUNICIPALIDAD PROVINCIAL DE HUAYTARA - PLAZA DE ARMAS", "casos_total": 9, "casos_sexual": 5, "casos_fisica": 3, "casos_psico": 1}}, {"type": "Feature", "geometry": {"type": "Point", "coordinates": [-73.75500193, -10.72954346]}, "properties": {"id": "CEM162", "nombre": "CEM ATALAYA", "key": "ucayali", "provincia": "ATALAYA", "distrito": "RAYMONDI", "direccion": "CALLE RIOJA N° 659 - DISTRITO DE RAYMONDI (REF. INTERIOR DEL LOCAL DE LA MUNICIPALIDAD)", "casos_total": 25, "casos_sexual": 5, "casos_fisica": 18, "casos_psico": 2}}, {"type": "Feature", "geometry": {"type": "Point", "coordinates": [-77.64557352, -9.28337247]}, "properties": {"id": "CEM163", "nombre": "CEM CARHUAZ", "key": "ancash", "provincia": "CARHUAZ", "distrito": "CARHUAZ", "direccion": "1RA CDRA DEL JR. ICA, S/N (EXTERIOR DEL COLISEO CERRADO DE CARHUAZ)", "casos_total": 28, "casos_sexual": 9, "casos_fisica": 10, "casos_psico": 9}}, {"type": "Feature", "geometry": {"type": "Point", "coordinates": [-78.14714684, -6.86371951]}, "properties": {"id": "CEM164", "nombre": "CEM CELENDIN", "key": "cajamarca", "provincia": "CELENDÍN", "distrito": "CELENDÍN", "direccion": "JR. SAN MARTIN N 343 (MEDIA CUADRA DE LA EXCARCEL)", "casos_total": 66, "casos_sexual": 6, "casos_fisica": 17, "casos_psico": 38}}, {"type": "Feature", "geometry": {"type": "Point", "coordinates": [-76.734436, -7.17977]}, "properties": {"id": "CEM166", "nombre": "CEM MARISCAL CÁCERES", "key": "san_martin", "provincia": "MARISCAL CÁCERES", "distrito": "JUANJUI", "direccion": "JR. PROGRESO, CUADRA 4- FRENTE A LA GOBERNACIÓN PROVINCIAL.", "casos_total": 24, "casos_sexual": 4, "casos_fisica": 6, "casos_psico": 14}}, {"type": "Feature", "geometry": {"type": "Point", "coordinates": [-76.586062, -7.066843]}, "properties": {"id": "CEM167", "nombre": "CEM BELLAVISTA-SAN MARTIN", "key": "san_martin", "provincia": "BELLAVISTA", "distrito": "BELLAVISTA", "direccion": "JR. IQUITOS N° 260 (BIBLIOTECA MUNICIPAL DE BELLAVISTA- 1er PISO 2do nivel", "casos_total": 65, "casos_sexual": 10, "casos_fisica": 21, "casos_psico": 34}}, {"type": "Feature", "geometry": {"type": "Point", "coordinates": [-76.516584, -10.491606]}, "properties": {"id": "CEM168", "nombre": "CEM DANIEL ALCIDES CARRION", "key": "pasco", "provincia": "DANIEL ALCIDES CARRIÓN", "distrito": "YANAHUANCA", "direccion": "JIRON BOLOGNESI S/N 2 PISO -  MERCADO CENTRAL DE YANAHUANCA", "casos_total": 26, "casos_sexual": 8, "casos_fisica": 10, "casos_psico": 8}}, {"type": "Feature", "geometry": {"type": "Point", "coordinates": [-74.489647, -11.428096]}, "properties": {"id": "CEM171", "nombre": "CEM PANGOA", "key": "junin", "provincia": "SATIPO", "distrito": "PANGOA", "direccion": "AV. 28 DE JULIO S/N (A ESPALDAS DE LA MUNICIPALIDAD DISTRITAL DE PANGOA).", "casos_total": 94, "casos_sexual": 35, "casos_fisica": 29, "casos_psico": 30}}, {"type": "Feature", "geometry": {"type": "Point", "coordinates": [-73.857489, -12.510121]}, "properties": {"id": "CEM172", "nombre": "CEM SIVIA", "key": "ayacucho", "provincia": "HUANTA", "distrito": "SIVIA", "direccion": "AV. MISIÓN FRANCISCANA CRUCE CON LA AV. RICARDO PALMA - 2DO PISO - FRENTE AL CONVENTO DE SIVIA", "casos_total": 22, "casos_sexual": 4, "casos_fisica": 12, "casos_psico": 5}}, {"type": "Feature", "geometry": {"type": "Point", "coordinates": [-71.95130711, -13.32352984]}, "properties": {"id": "CEM173", "nombre": "CEM CALCA", "key": "cusco", "provincia": "CALCA", "distrito": "CALCA", "direccion": "AV. LA PAZ S/N - INTERIOR DEL COLISEO MUNICIPAL", "casos_total": 42, "casos_sexual": 5, "casos_fisica": 7, "casos_psico": 30}}, {"type": "Feature", "geometry": {"type": "Point", "coordinates": [-78.81982076, -7.47951177]}, "properties": {"id": "CEM174", "nombre": "CEM GRAN CHIMU", "key": "la_libertad", "provincia": "GRAN CHIMÚ", "distrito": "CASCAS", "direccion": "PASAJE MEDIO MUNDO S/N -CASCAS (LOCAL DEL ESTADIO MUNICIPAL)", "casos_total": 23, "casos_sexual": 10, "casos_fisica": 6, "casos_psico": 7}}, {"type": "Feature", "geometry": {"type": "Point", "coordinates": [-75.772394, -13.985624]}, "properties": {"id": "CEM175", "nombre": "CEM SALAS", "key": "ica", "provincia": "ICA", "distrito": "SALAS", "direccion": "CALLE LIMA NRO 110 (2DO PISO FRENTE A LA PLAZA DE ARMAS)", "casos_total": 84, "casos_sexual": 17, "casos_fisica": 37, "casos_psico": 30}}, {"type": "Feature", "geometry": {"type": "Point", "coordinates": [-75.70184117, -14.04456923]}, "properties": {"id": "CEM176", "nombre": "CEM PARCONA", "key": "ica", "provincia": "ICA", "distrito": "PARCONA", "direccion": "AV. JOHN F. KENNEDY N° 500 (REF. INTERIOR DE LA MUNICIPALIDAD DISTRITAL)", "casos_total": 50, "casos_sexual": 6, "casos_fisica": 18, "casos_psico": 26}}, {"type": "Feature", "geometry": {"type": "Point", "coordinates": [-75.31833363, -13.28310208]}, "properties": {"id": "CEM177", "nombre": "CEM CASTROVIRREYNA", "key": "huancavelica", "provincia": "CASTROVIRREYNA", "distrito": "CASTROVIRREYNA", "direccion": "AV. LOS LIBERTADORES S/N ( INT. DE LA MUNICIPALIDAD PROVINCIAL DE CASTROVIRREYNA)", "casos_total": 3, "casos_sexual": 0, "casos_fisica": 2, "casos_psico": 1}}, {"type": "Feature", "geometry": {"type": "Point", "coordinates": [-78.80355332, -7.36577537]}, "properties": {"id": "CEM178", "nombre": "CEM CONTUMAZA", "key": "cajamarca", "provincia": "CONTUMAZA", "distrito": "CONTUMAZA", "direccion": "JRBOLOGNESI N° 381- CONTUMAZA 2DO PISO( EX LOCAL DE DEMUNA)", "casos_total": 18, "casos_sexual": 3, "casos_fisica": 9, "casos_psico": 6}}, {"type": "Feature", "geometry": {"type": "Point", "coordinates": [-74.96456457, -9.38040244]}, "properties": {"id": "CEM179", "nombre": "CEM PUERTO INCA", "key": "huanuco", "provincia": "PUERTO INCA", "distrito": "PUERTO INCA", "direccion": "MELECON LEGUIA S/N 2DO PISO LOCAL DE LA DEMUNA DE PUERTO INCA(FRENTE AL RIO PACHITEA)", "casos_total": 74, "casos_sexual": 19, "casos_fisica": 43, "casos_psico": 12}}, {"type": "Feature", "geometry": {"type": "Point", "coordinates": [-75.00950471, -7.35062102]}, "properties": {"id": "CEM180", "nombre": "CEM UCAYALI", "key": "loreto", "provincia": "UCAYALI", "distrito": "CONTAMANA", "direccion": "Esq. Calle Mariscal Castilla con Jr. Amazonas (Ref. Interior de la Biblioteca Municipal)", "casos_total": 22, "casos_sexual": 10, "casos_fisica": 4, "casos_psico": 8}}, {"type": "Feature", "geometry": {"type": "Point", "coordinates": [-71.59687, -13.31606]}, "properties": {"id": "CEM181", "nombre": "CEM PAUCARTAMBO", "key": "cusco", "provincia": "PAUCARTAMBO", "distrito": "PAUCARTAMBO", "direccion": "AV. CIRCUNVALACION ERICKSON S/N * 2PISO DEL TERMINAL TERRESTRE - PAUCARTAMBO", "casos_total": 74, "casos_sexual": 7, "casos_fisica": 21, "casos_psico": 46}}, {"type": "Feature", "geometry": {"type": "Point", "coordinates": [-76.332431, -6.914433]}, "properties": {"id": "CEM182", "nombre": "CEM PICOTA", "key": "san_martin", "provincia": "PICOTA", "distrito": "PICOTA", "direccion": "CARRETERA FERNANDO BELAUNDE TERRY S/N, EX AGROPICOTA E.I.R.L", "casos_total": 30, "casos_sexual": 5, "casos_fisica": 6, "casos_psico": 19}}, {"type": "Feature", "geometry": {"type": "Point", "coordinates": [-77.29657161, -8.27560131]}, "properties": {"id": "CEM183", "nombre": "CEM PATAZ", "key": "la_libertad", "provincia": "PATAZ", "distrito": "TAYABAMBA", "direccion": "JR. JOSÉ GALVEZ N° 481, 1ER PISO , DEL CENTRO CIVICO.", "casos_total": 24, "casos_sexual": 3, "casos_fisica": 15, "casos_psico": 6}}, {"type": "Feature", "geometry": {"type": "Point", "coordinates": [-76.631914, -10.0777]}, "properties": {"id": "CEM184", "nombre": "CEM LAURICOCHA", "key": "huanuco", "provincia": "LAURICOCHA", "distrito": "JESÚS", "direccion": "JR. LEONCIO PRADO S/N - EDIFICIO PODER JUDICIAL- 5TO. PISO", "casos_total": 29, "casos_sexual": 3, "casos_fisica": 9, "casos_psico": 17}}, {"type": "Feature", "geometry": {"type": "Point", "coordinates": [-71.43289075, -14.21693486]}, "properties": {"id": "CEM185", "nombre": "CEM CANAS", "key": "cusco", "provincia": "CANAS", "distrito": "YANAOCA", "direccion": "PLAZA DE ARMAS S/N - INTERIOR DEL PALACIO MUNICIPAL 3ER PISO. (EX RADIO MUNICIPAL)", "casos_total": 35, "casos_sexual": 5, "casos_fisica": 16, "casos_psico": 14}}, {"type": "Feature", "geometry": {"type": "Point", "coordinates": [-77.48229277, -6.39539762]}, "properties": {"id": "CEM186", "nombre": "CEM RODRIGUEZ DE MENDOZA", "key": "amazonas", "provincia": "RODRÍGUEZ DE MENDOZA", "distrito": "SAN NICOLAS", "direccion": "JR. MATIAZA RIMACHI N°510 (INT. MUNICIPALIDAD PROVINCIAL DE RODRIGUEZ DE MENDOZA", "casos_total": 36, "casos_sexual": 11, "casos_fisica": 22, "casos_psico": 3}}, {"type": "Feature", "geometry": {"type": "Point", "coordinates": [-76.608443, -9.859267]}, "properties": {"id": "CEM188", "nombre": "CEM YAROWILCA", "key": "huanuco", "provincia": "YAROWILCA", "distrito": "CHAVINILLO", "direccion": "JR. SAN JUAN S/N REF. ZOTANO DEL EXMERCADO MUNICIPAL", "casos_total": 29, "casos_sexual": 2, "casos_fisica": 8, "casos_psico": 19}}, {"type": "Feature", "geometry": {"type": "Point", "coordinates": [-78.4897, -8.04262]}, "properties": {"id": "CEM189", "nombre": "CEM JULCAN", "key": "la_libertad", "provincia": "JULCÁN", "distrito": "JULCÁN", "direccion": "AV. CESAR VALLEJO N° 306, JULCAN (AL COSTADO DE RADIO JULCÁN)", "casos_total": 19, "casos_sexual": 4, "casos_fisica": 7, "casos_psico": 8}}, {"type": "Feature", "geometry": {"type": "Point", "coordinates": [-76.3491331, -6.49412438]}, "properties": {"id": "CEM190", "nombre": "CEM LA BANDA DE SHILCAYO", "key": "san_martin", "provincia": "SAN MARTÍN", "distrito": "LA BANDA DE SHILCAYO", "direccion": "PASAJE 17 DE AGOSTO N°152 - LA BANDA DE SHILCAYO", "casos_total": 49, "casos_sexual": 17, "casos_fisica": 14, "casos_psico": 18}}, {"type": "Feature", "geometry": {"type": "Point", "coordinates": [-78.8514, -7.00028]}, "properties": {"id": "CEM191", "nombre": "CEM SAN MIGUEL", "key": "cajamarca", "provincia": "SAN MIGUEL", "distrito": "SAN MIGUEL", "direccion": "JIRÓN BOLÍVAR 553 - 2DO. PISO FRENTE A LA SBP - ALTURA DE LA PLAZA DE ARMAS", "casos_total": 15, "casos_sexual": 1, "casos_fisica": 4, "casos_psico": 10}}, {"type": "Feature", "geometry": {"type": "Point", "coordinates": [-78.172532, -7.335817]}, "properties": {"id": "CEM192", "nombre": "CEM SAN MARCOS", "key": "cajamarca", "provincia": "SAN MARCOS", "distrito": "PEDRO GALVEZ", "direccion": "JIRON JOSE GALVEZ 113 SAN MARCOS", "casos_total": 32, "casos_sexual": 3, "casos_fisica": 12, "casos_psico": 17}}, {"type": "Feature", "geometry": {"type": "Point", "coordinates": [-77.156961, -10.152295]}, "properties": {"id": "CEM195", "nombre": "CEM BOLOGNESI", "key": "ancash", "provincia": "BOLOGNESI", "distrito": "CHIQUIAN", "direccion": "JR. TACNA N° 320 SEGUNDO PISO, INTERIOR DEL CENTRO CÍVICO - PLAZA DE ARMAS", "casos_total": 14, "casos_sexual": 1, "casos_fisica": 4, "casos_psico": 9}}, {"type": "Feature", "geometry": {"type": "Point", "coordinates": [-77.631575, -8.554736]}, "properties": {"id": "CEM196", "nombre": "CEM SIHUAS", "key": "ancash", "provincia": "SIHUAS", "distrito": "SIHUAS", "direccion": "JR. 09 DE ENERO - S/N- PLAZA DE ARMAS (LOCAL ANTIGUO DE LA MUNICIPALIDAD PROVINCIAL DE SIHUAS", "casos_total": 18, "casos_sexual": 3, "casos_fisica": 11, "casos_psico": 4}}, {"type": "Feature", "geometry": {"type": "Point", "coordinates": [-78.008822, -8.392836]}, "properties": {"id": "CEM197", "nombre": "CEM PALLASCA", "key": "ancash", "provincia": "PALLASCA", "distrito": "CABANA", "direccion": "JR. PLAZA DE ARMAS N° 103-CABANA- PALLASCA", "casos_total": 13, "casos_sexual": 4, "casos_fisica": 7, "casos_psico": 2}}, {"type": "Feature", "geometry": {"type": "Point", "coordinates": [-79.012583, -8.070642]}, "properties": {"id": "CEM198", "nombre": "CEM EL PORVENIR", "key": "la_libertad", "provincia": "TRUJILLO", "distrito": "EL PORVENIR", "direccion": "AV. WICHANZAO MZA 23, LOTE 2, SECTOR NUEVO PORVENIR", "casos_total": 218, "casos_sexual": 27, "casos_fisica": 83, "casos_psico": 108}}, {"type": "Feature", "geometry": {"type": "Point", "coordinates": [-73.048171, -12.647929]}, "properties": {"id": "CEM199", "nombre": "CEM ECHARATI", "key": "cusco", "provincia": "LA CONVENCIÓN", "distrito": "ECHARATE", "direccion": "PLAZA DE ARMAS S/N INTERIOR DE LA MUNICIPALIDAD DEL CENTRO POBLADO DE KITENI", "casos_total": 38, "casos_sexual": 10, "casos_fisica": 16, "casos_psico": 12}}, {"type": "Feature", "geometry": {"type": "Point", "coordinates": [-77.357893, -8.864696]}, "properties": {"id": "CEM200", "nombre": "CEM MARISCAL LUZURIAGA", "key": "ancash", "provincia": "MARISCAL LUZURIAGA", "distrito": "PISCOBAMBA", "direccion": "CALLE SAN PABLO S/N (COSTADO DEL RENIEC) - DISTRITO DE PISCOBAMBA, PROVINCIA MARISCAL LUZURIAGA)", "casos_total": 17, "casos_sexual": 0, "casos_fisica": 7, "casos_psico": 10}}, {"type": "Feature", "geometry": {"type": "Point", "coordinates": [-76.772304, -6.935117]}, "properties": {"id": "CEM202", "nombre": "CEM HUALLAGA", "key": "san_martin", "provincia": "HUALLAGA", "distrito": "SAPOSOA", "direccion": "AV. LORETO 385 - DISTRITO DE SAPOSOA - HUALLAGA.", "casos_total": 32, "casos_sexual": 5, "casos_fisica": 11, "casos_psico": 16}}, {"type": "Feature", "geometry": {"type": "Point", "coordinates": [-73.244852, -14.294071]}, "properties": {"id": "CEM204", "nombre": "CEM AYMARAES", "key": "apurimac", "provincia": "AYMARAES", "distrito": "CHALHUANCA", "direccion": "JR. BALLON S/N - 1RA CUADRA (A LA ESPALDA DEL HOSPITAL DE CHALHUANCA", "casos_total": 26, "casos_sexual": 1, "casos_fisica": 10, "casos_psico": 15}}, {"type": "Feature", "geometry": {"type": "Point", "coordinates": [-77.365736, -9.160649]}, "properties": {"id": "CEM205", "nombre": "CEM ASUNCION", "key": "ancash", "provincia": "ASUNCIÓN", "distrito": "CHACAS", "direccion": "JIRON PACHACUTEC S/N", "casos_total": 34, "casos_sexual": 1, "casos_fisica": 2, "casos_psico": 31}}, {"type": "Feature", "geometry": {"type": "Point", "coordinates": [-78.8239, -7.11889]}, "properties": {"id": "CEM206", "nombre": "CEM SAN PABLO", "key": "cajamarca", "provincia": "SAN PABLO", "distrito": "SAN PABLO", "direccion": "AV. JULIAN CRUZADO S/N - INTERIOR DEL GARAJE MUNICIPAL -BARRIO CALIFORNIA", "casos_total": 18, "casos_sexual": 3, "casos_fisica": 6, "casos_psico": 9}}, {"type": "Feature", "geometry": {"type": "Point", "coordinates": [-76.773621, -10.669474]}, "properties": {"id": "CEM207", "nombre": "CEM OYON", "key": "lima", "provincia": "OYÓN", "distrito": "OYÓN", "direccion": "JIRÓN UNIÓN S/N (FRENTE AL MERCADO CENTRAL)", "casos_total": 42, "casos_sexual": 6, "casos_fisica": 5, "casos_psico": 12}}, {"type": "Feature", "geometry": {"type": "Point", "coordinates": [-71.6828, -13.9191]}, "properties": {"id": "CEM208", "nombre": "CEM ACOMAYO", "key": "cusco", "provincia": "ACOMAYO", "distrito": "ACOMAYO", "direccion": "JR. RAMÓN CASTILLA S/N (EX LOCAL DE ESSALUD) - ACOMAYO.", "casos_total": 37, "casos_sexual": 3, "casos_fisica": 19, "casos_psico": 15}}, {"type": "Feature", "geometry": {"type": "Point", "coordinates": [-77.149119, -8.604807]}, "properties": {"id": "CEM209", "nombre": "CEM MARAÑON", "key": "huanuco", "provincia": "MARAÑÓN", "distrito": "HUACRACHUCO", "direccion": "JR. ANCASH S/N, PRIMERO PISO DEL JUZGADO MIXTO DE HUACRACHUCO, A MEDIA CUADRA DEL MINISTERIO PUBLICO.", "casos_total": 18, "casos_sexual": 1, "casos_fisica": 7, "casos_psico": 10}}, {"type": "Feature", "geometry": {"type": "Point", "coordinates": [-77.163507, -11.797416]}, "properties": {"id": "CEM210", "nombre": "CEM SANTA ROSA", "key": "lima", "provincia": "LIMA", "distrito": "ANCON", "direccion": "AV ALEJANDRO BERTELO S/N (COSTADO DEL ARCHIVO Y  LA BASE DE SERENAZGO DE LA MUNICIPALIDAD DE SANTA ROSA) - PASANDO LA COMISARISA DE SANTA ROSA", "casos_total": 3, "casos_sexual": 0, "casos_fisica": 3, "casos_psico": 0}}, {"type": "Feature", "geometry": {"type": "Point", "coordinates": [-77.460765, -8.820269]}, "properties": {"id": "CEM211", "nombre": "CEM POMABAMBA", "key": "ancash", "provincia": "POMABAMBA", "distrito": "POMABAMBA", "direccion": "JIRON PÉRU S/N- PLAZA DE ARMAS", "casos_total": 16, "casos_sexual": 0, "casos_fisica": 10, "casos_psico": 6}}, {"type": "Feature", "geometry": {"type": "Point", "coordinates": [-76.6246, -11.4672]}, "properties": {"id": "CEM214", "nombre": "CEM CANTA", "key": "lima", "provincia": "CANTA", "distrito": "CANTA", "direccion": "AVENIDA CIRCUNVALACIÓN S/N (AL COSTADO DEL CEMENTERIO DE CANTA), COSTADO DEL PODER JUDICIAL", "casos_total": 8, "casos_sexual": 3, "casos_fisica": 1, "casos_psico": 4}}, {"type": "Feature", "geometry": {"type": "Point", "coordinates": [-75.187832, -14.533712]}, "properties": {"id": "CEM215", "nombre": "CEM PALPA", "key": "ica", "provincia": "PALPA", "distrito": "PALPA", "direccion": "CALLE AREQUIPA 135 - AL FRENTE DE LA COMISARIA DE PALPA", "casos_total": 11, "casos_sexual": 0, "casos_fisica": 5, "casos_psico": 6}}, {"type": "Feature", "geometry": {"type": "Point", "coordinates": [-76.952673, -9.037639]}, "properties": {"id": "CEM217", "nombre": "CEM HUACAYBAMBA", "key": "huanuco", "provincia": "HUACAYBAMBA", "distrito": "HUACAYBAMBA", "direccion": "JR. PACHACUTEC CDRA 02 S/N - 2DO PISO DE LA MUNICIPALIDAD PROVINCIAL DE HUACAYBAMBA", "casos_total": 28, "casos_sexual": 3, "casos_fisica": 9, "casos_psico": 16}}, {"type": "Feature", "geometry": {"type": "Point", "coordinates": [-76.993104, -10.472857]}, "properties": {"id": "CEM218", "nombre": "CEM CAJATAMBO", "key": "lima", "provincia": "CAJATAMBO", "distrito": "CAJATAMBO", "direccion": "CALLE PLAZA DE ARMAS N° 109 FRENTE A LA PLAZA DE ARMAS", "casos_total": 14, "casos_sexual": 0, "casos_fisica": 8, "casos_psico": 6}}, {"type": "Feature", "geometry": {"type": "Point", "coordinates": [-77.33081, -9.094345]}, "properties": {"id": "CEM219", "nombre": "CEM CARLOS FERMIN FITZCARRALD", "key": "ancash", "provincia": "CARLOS FERMÍN FITZCARRALD", "distrito": "SAN LUIS", "direccion": "JR. PLAZA DE ARMAS N°506 - 1ER PISO DE LA MUNICIPALIDAD", "casos_total": 9, "casos_sexual": 1, "casos_fisica": 3, "casos_psico": 5}}, {"type": "Feature", "geometry": {"type": "Point", "coordinates": [-77.017259, -9.102331]}, "properties": {"id": "CEM220", "nombre": "CEM ANTONIO RAYMONDI", "key": "ancash", "provincia": "ANTONIO RAYMONDI", "distrito": "LLAMELLIN", "direccion": "AV. LLAMELLIN N° 728", "casos_total": 5, "casos_sexual": 1, "casos_fisica": 1, "casos_psico": 3}}, {"type": "Feature", "geometry": {"type": "Point", "coordinates": [-78.9447, -6.6274968]}, "properties": {"id": "CEM221", "nombre": "CEM SANTA CRUZ", "key": "cajamarca", "provincia": "SANTA CRUZ", "distrito": "SANTA CRUZ", "direccion": "JR. BOLIVAR N° 253 - FRENTE A RADIO H.G.V.", "casos_total": 13, "casos_sexual": 5, "casos_fisica": 2, "casos_psico": 6}}, {"type": "Feature", "geometry": {"type": "Point", "coordinates": [-76.696698, -11.941822]}, "properties": {"id": "CEM223", "nombre": "CEM CHOSICA", "key": "lima", "provincia": "LIMA", "distrito": "LURIGANCHO", "direccion": "AV. ENRIQUE GUZMAN Y VALLE S/N INTERIOR DE LA CASA DE LA MUJER DE CHOSICA - 3 ER PISO, CHOSICA, DISTRITO DE LURIGANCHO. REFERENCIA: AL COSTADO DEL ESTADIO SOLIS GARCIA", "casos_total": 21, "casos_sexual": 5, "casos_fisica": 9, "casos_psico": 7}}, {"type": "Feature", "geometry": {"type": "Point", "coordinates": [-76.8271, -12.1082]}, "properties": {"id": "CEM224", "nombre": "CEM CIENEGUILLA", "key": "lima", "provincia": "LIMA", "distrito": "CIENEGUILLA", "direccion": "LUZ VICKY CRISPIN HUACHUA", "casos_total": 18, "casos_sexual": 6, "casos_fisica": 11, "casos_psico": 1}}, {"type": "Feature", "geometry": {"type": "Point", "coordinates": [-77.452769, -9.728845]}, "properties": {"id": "CEM225", "nombre": "CEM RECUAY", "key": "ancash", "provincia": "RECUAY", "distrito": "RECUAY", "direccion": "JR. BOLIVAR N°290-INTERIOR DEL ANTIGUO HOTEL PASTORURI . 1ER PISO", "casos_total": 41, "casos_sexual": 4, "casos_fisica": 17, "casos_psico": 20}}, {"type": "Feature", "geometry": {"type": "Point", "coordinates": [-77.609574, -9.780159]}, "properties": {"id": "CEM227", "nombre": "CEM AIJA", "key": "ancash", "provincia": "AIJA", "distrito": "AIJA", "direccion": "PLAZA DE ARMAS DE AIJA - JR. INDEPENDENCIA N° 480", "casos_total": 3, "casos_sexual": 1, "casos_fisica": 0, "casos_psico": 2}}, {"type": "Feature", "geometry": {"type": "Point", "coordinates": [-77.396758, -10.403134]}, "properties": {"id": "CEM228", "nombre": "CEM OCROS", "key": "ancash", "provincia": "OCROS", "distrito": "OCROS", "direccion": "PLAZA DE ARMAS S/N - CALLE COMERCIO No. 272  INTERIOR DE LA MUNICIPALIDAD PROVINCIAL DE OCROS - 3ER PISO", "casos_total": 13, "casos_sexual": 1, "casos_fisica": 1, "casos_psico": 11}}, {"type": "Feature", "geometry": {"type": "Point", "coordinates": [-77.703902, -7.153652]}, "properties": {"id": "CEM229", "nombre": "CEM BOLIVAR", "key": "la_libertad", "provincia": "BOLÍVAR", "distrito": "BOLÍVAR", "direccion": "JR. SAN MARTÍN N° 535, A UNA CUADRA DEL INSTITUTO SUPERIOR TÉCNICO BOLIVAR", "casos_total": 16, "casos_sexual": 4, "casos_fisica": 2, "casos_psico": 10}}, {"type": "Feature", "geometry": {"type": "Point", "coordinates": [-71.84698, -13.759904]}, "properties": {"id": "CEM230", "nombre": "CEM PARURO", "key": "cusco", "provincia": "PARURO", "distrito": "PARURO", "direccion": "BARRIO LOS LICENCIADOS S/N  ALBERGUE MUNICIPAL", "casos_total": 41, "casos_sexual": 5, "casos_fisica": 13, "casos_psico": 23}}]}